SUOMI NPP               
1 37849U 11061A   26167.63568278  .00000050  00000+0  44553-4 0  9996
2 37849  98.7953 108.5155 0001565   8.1641 351.9560 14.19517222758368
YAOGAN-12               
1 37875U 11066B   26167.61027752  .00006285  00000+0  24246-3 0  9997
2 37875  97.1138 206.2057 0008586 218.7209 141.3416 15.26598127811959
BEIDOU-2 M4             
1 38251U 12018B   26167.04705925 -.00000071  00000+0  00000+0 0  9992
2 38251  55.6595 304.1282 0011292 275.7401  84.1149  1.86229354 95929
ARIRANG-3 (KOMPSAT-3)   
1 38338U 12025B   26167.62212689  .00000345  00000+0  77736-4 0  9998
2 38338  98.1170 125.0918 0006658 110.7616 249.4299 14.62205700751263
METOP-B                 
1 38771U 12049A   26167.55610307  .00000090  00000+0  61007-4 0  9997
2 38771  98.6505 219.0679 0002275  21.3285 338.7987 14.21432598713175
SJ-9A                   
1 38860U 12056A   26167.55821753  .00000795  00000+0  97764-4 0  9994
2 38860  97.6708 139.5324 0023976 258.8863 100.9657 14.85477346699492
COSMOS 2484 (RODNIK-S 6)
1 39059U 13001C   26167.58262297  .00000088  00000+0  56385-3 0  9999
2 39059  82.5018 222.2684 0026903  37.9071 322.3896 12.42939243608483
SARAL                   
1 39086U 13009A   26167.62192834  .00000067  00000+0  40414-4 0  9995
2 39086  98.5556 354.1963 0000737 313.5966  46.5157 14.32855808695526
STRAND-1                
1 39090U 13009E   26167.56865568  .00000207  00000+0  84083-4 0  9990
2 39090  98.3921 347.8182 0007698 227.4338 132.6200 14.37162942696977
BRITE-AUSTRIA           
1 39091U 13009F   26167.44196029  .00000141  00000+0  62460-4 0  9999
2 39091  98.3994 346.8961 0009125 239.0066 121.0225 14.36541877696949
GAOFEN-1                
1 39150U 13018A   26167.58863537  .00000824  00000+0  12535-3 0  9990
2 39150  97.9101 239.6687 0015671 268.5527  91.3888 14.76537824708158
NEE-01 PEGASO           
1 39151U 13018B   26167.39472627  .00002186  00000+0  21240-3 0  9992
2 39151  98.1216 311.5180 0013012 161.8951 198.2733 14.93656509710587
PROBA-V                 
1 39159U 13021A   26167.48659274  .00000043  00000+0  36927-4 0  9998
2 39159  98.3583 146.1278 0005108 125.0384 235.1276 14.23596846681011
ARIRANG-5 (KOMPSAT-5)   
1 39227U 13042A   26167.16846406  .00000866  00000+0  66253-4 0  9995
2 39227  97.6201 353.8833 0005280 122.0593 238.1146 15.04487529703707
GONETS-M 5              
1 39249U 13048A   26167.55143475  .00000046  00000+0  26240-3 0  9995
2 39249  82.4824 343.7786 0016041 211.8711 148.1400 12.42891978578805
GONETS-M 7              
1 39251U 13048C   26167.59489964  .00000016  00000+0  44249-4 0  9995
2 39251  82.4891 346.6736 0016828 213.2097 146.7928 12.42914685578760
FENGYUN 3C              
1 39260U 13052A   26167.61977374  .00000061  00000+0  52116-4 0  9992
2 39260  98.4986 141.5206 0015287  29.1858 331.0168 14.15754870658486
CASSIOPE                
1 39265U 13055A   26167.50598788  .00042712 -53981-6  46668-3 0  9993
2 39265  80.9150  67.5495 0292901  64.7204 298.4069 15.25130525667569
APRIZESAT 7             
1 39416U 13066A   26167.61727597  .00001051  00000+0  10935-3 0  9992
2 39416  97.7709 120.8454 0034954 211.2066 148.7077 14.91562845681140
ZACUBE-1 (TSHEPISOSAT)  
1 39417U 13066B   26167.60742097  .00002510  00000+0  19730-3 0  9997
2 39417  97.8081 129.9413 0040740 249.6974 109.9870 15.01186029680645
APRIZESAT 8             
1 39425U 13066K   26167.40157540  .00000819  00000+0  94643-4 0  9994
2 39425  97.8220 114.8803 0044453 289.2471  70.3939 14.87651523679556
