OBJECT_NAME,OBJECT_ID,EPOCH,MEAN_MOTION,ECCENTRICITY,INCLINATION,RA_OF_ASC_NODE,ARG_OF_PERICENTER,MEAN_ANOMALY,EPHEMERIS_TYPE,CLASSIFICATION_TYPE,NORAD_CAT_ID,ELEMENT_SET_NO,REV_AT_EPOCH,BSTAR,MEAN_MOTION_DOT,MEAN_MOTION_DDOT
SUOMI NPP,2011-061A,2026-06-16T15:15:22.992192,14.19517222,.00015653,98.7953,108.5155,8.1641,351.9560,0,U,37849,999,75836,.44552977E-4,.5E-6,0
YAOGAN-12,2011-066B,2026-06-16T14:38:47.977728,15.26598127,.00085867,97.1138,206.2057,218.7209,141.3416,0,U,37875,999,81195,.24246499E-3,.6285E-4,0
BEIDOU-2 M4,2012-018B,2026-06-16T01:07:45.919200,1.86229354,.00112922,55.6595,304.1282,275.7401,84.1149,0,U,38251,999,9592,0,-.71E-6,0
ARIRANG-3 (KOMPSAT-3),2012-025B,2026-06-16T14:55:51.763296,14.62205700,.00066584,98.1170,125.0918,110.7616,249.4299,0,U,38338,999,75126,.77735973E-4,.345E-5,0
METOP-B,2012-049A,2026-06-16T13:20:47.305248,14.21432598,.00022755,98.6505,219.0679,21.3285,338.7987,0,U,38771,999,71317,.61006602E-4,.9E-6,0
SJ-9A,2012-056A,2026-06-16T13:23:49.994592,14.85477346,.0023976,97.6708,139.5324,258.8863,100.9657,0,U,38860,999,69949,.97763785E-4,.795E-5,0
COSMOS 2484 (RODNIK-S 6),2013-001C,2026-06-16T13:58:58.624608,12.42939243,.00269031,82.5018,222.2684,37.9071,322.3896,0,U,39059,999,60848,.56384608E-3,.88E-6,0
SARAL,2013-009A,2026-06-16T14:55:34.608576,14.32855808,.00007372,98.5556,354.1963,313.5966,46.5157,0,U,39086,999,69552,.40413847E-4,.67E-6,0
STRAND-1,2013-009E,2026-06-16T13:38:51.850752,14.37162942,.00076982,98.3921,347.8182,227.4338,132.6200,0,U,39090,999,69697,.84083301E-4,.207E-5,0
BRITE-AUSTRIA,2013-009F,2026-06-16T10:36:25.369056,14.36541877,.00091252,98.3994,346.8961,239.0066,121.0225,0,U,39091,999,69694,.62459944E-4,.141E-5,0
GAOFEN-1,2013-018A,2026-06-16T14:07:38.095968,14.76537824,.00156715,97.9101,239.6687,268.5527,91.3888,0,U,39150,999,70815,.12535161E-3,.824E-5,0
NEE-01 PEGASO,2013-018B,2026-06-16T09:28:24.349728,14.93656509,.00130128,98.1216,311.5180,161.8951,198.2733,0,U,39151,999,71058,.2124008E-3,.2186E-4,0
PROBA-V,2013-021A,2026-06-16T11:40:41.612736,14.23596846,.00051083,98.3583,146.1278,125.0384,235.1276,0,U,39159,999,68101,.36927348E-4,.43E-6,0
ARIRANG-5 (KOMPSAT-5),2013-042A,2026-06-16T04:02:35.294784,15.04487529,.00052806,97.6201,353.8833,122.0593,238.1146,0,U,39227,999,70370,.66252969E-4,.866E-5,0
GONETS-M 5,2013-048A,2026-06-16T13:14:03.962400,12.42891978,.00160416,82.4824,343.7786,211.8711,148.1400,0,U,39249,999,57880,.26239697E-3,.46E-6,0
GONETS-M 7,2013-048C,2026-06-16T14:16:39.328896,12.42914685,.00168281,82.4891,346.6736,213.2097,146.7928,0,U,39251,999,57876,.44249224E-4,.16E-6,0
FENGYUN 3C,2013-052A,2026-06-16T14:52:28.451136,14.15754870,.00152879,98.4986,141.5206,29.1858,331.0168,0,U,39260,999,65848,.52115871E-4,.61E-6,0
CASSIOPE,2013-055A,2026-06-16T12:08:37.352832,15.25130525,.02929019,80.9150,67.5495,64.7204,298.4069,0,U,39265,999,66756,.46668056E-3,.42712E-3,-.539808E-6
APRIZESAT 7,2013-066A,2026-06-16T14:48:52.643808,14.91562845,.00349541,97.7709,120.8454,211.2066,148.7077,0,U,39416,999,68114,.10934898E-3,.1051E-4,0
ZACUBE-1 (TSHEPISOSAT),2013-066B,2026-06-16T14:34:41.171808,15.01186029,.00407404,97.8081,129.9413,249.6974,109.9870,0,U,39417,999,68064,.19729818E-3,.251E-4,0
APRIZESAT 8,2013-066K,2026-06-16T09:38:16.114560,14.87651523,.00444533,97.8220,114.8803,289.2471,70.3939,0,U,39425,999,67955,.94643427E-4,.819E-5,0
